NORAD_CAT_ID,OBJECT_NAME,OBJECT_TYPE,EPOCH,MEAN_MOTION,ECCENTRICITY,INCLINATION,RA_OF_ASC_NODE,ARG_OF_PERICENTER,MEAN_ANOMALY,BSTAR,MEAN_MOTION_DOT,MEAN_MOTION_DDOT,TLE_LINE0,TLE_LINE1,TLE_LINE2,SEMIMAJOR_AXIS,PERIOD,APOGEE,PERIGEE,DECAYED
52459.0,STARLINK-3856,PAYLOAD,2022-10-18 12:23:56,15.08828714,0.000135,53.2147,217.4853,59.706,300.4065,6.0257e-05,6.71e-06,0.0,0 STARLINK-3856,1 52459U 22049J   22291.51662172  .00000671  00000-0  60257-4 0  9996,2 52459  53.2147 217.4853 0001350  59.7060 300.4065 15.08828714 25486,6917.915,95.438,540.714,538.846,0.0
52459.0,STARLINK-3856,PAYLOAD,2022-10-18 18:45:29,15.08825529,0.0001625,53.2157,216.2996,72.5706,287.5464,5.325600000000001e-05,5.59e-06,0.0,0 STARLINK-3856,1 52459U 22049J   22291.78158664  .00000559  00000-0  53256-4 0  9997,2 52459  53.2157 216.2996 0001625  72.5706 287.5464 15.08825529 25363,6917.925,95.438,540.914,538.665,0.0
52459.0,STARLINK-3856,PAYLOAD,2022-10-19 04:17:50,15.08800753,0.0001523,53.2173,214.5132,58.6647,301.4494,-0.00020313,-3.516e-05,0.0,0 STARLINK-3856,1 52459U 22049J   22292.17905527 -.00003516  00000-0 -20313-3 0  9994,2 52459  53.2173 214.5132 0001523  58.6647 301.4494 15.08800753 25585,6918.0,95.44,540.919,538.812,0.0
52459.0,STARLINK-3856,PAYLOAD,2022-10-19 12:14:45,15.08807795,0.0001621,53.2172,213.0283,67.505,292.6113,-3.9077e-05,-9.09e-06,0.0,0 STARLINK-3856,1 52459U 22049J   22292.51025324 -.00000909  00000-0 -39077-4 0  9991,2 52459  53.2172 213.0283 0001621  67.5050 292.6113 15.08807795 25471,6917.979,95.44,540.965,538.722,0.0
52459.0,STARLINK-3856,PAYLOAD,2022-10-20 04:08:34,15.08848161,0.0001659,53.2171,210.0527,63.5765,296.5398,0.00013592,1.876e-05,0.0,0 STARLINK-3856,1 52459U 22049J   22293.17262628  .00001876  00000-0  13592-3 0  9999,2 52459  53.2171 210.0527 0001659  63.5765 296.5398 15.08848161 25579,6917.855,95.437,540.868,538.573,0.0
52459.0,STARLINK-3856,PAYLOAD,2022-10-20 18:27:03,15.08836894,0.0001804,53.2188,207.3791,69.1328,290.9857,0.00017734,2.535e-05,0.0,0 STARLINK-3856,1 52459U 22049J   22293.76879343  .00002535  00000-0  17734-3 0  9997,2 52459  53.2188 207.3791 0001804  69.1328 290.9857 15.08836894 25666,6917.89,95.438,541.003,538.507,0.0
52459.0,STARLINK-3856,PAYLOAD,2022-10-21 03:59:23,15.08829417,0.0001322,53.2176,205.5917,66.3163,293.7968,0.00013478,1.857e-05,0.0,0 STARLINK-3856,1 52459U 22049J   22294.16624029  .00001857  00000-0  13478-3 0  9998,2 52459  53.2176 205.5917 0001322  66.3163 293.7968 15.08829417 25728,6917.913000000001,95.438,540.692,538.863,0.0
52459.0,STARLINK-3856,PAYLOAD,2022-10-22 03:50:09,15.08850097,0.0001501,53.2171,201.1314,62.4242,297.6903,-3.1741e-05,-7.93e-06,0.0,0 STARLINK-3856,1 52459U 22049J   22295.15983183 -.00000793  00000-0 -31741-4 0  9991,2 52459  53.2171 201.1314 0001501  62.4242 297.6903 15.08850097 25876,6917.85,95.437,540.753,538.6759999999998,0.0
52459.0,STARLINK-3856,PAYLOAD,2022-10-22 18:08:37,15.08847025,0.0001464,53.2165,198.456,59.606,300.5076,0.00010927,1.452e-05,0.0,0 STARLINK-3856,1 52459U 22049J   22295.75598420  .00001452  00000-0  10927-3 0  9996,2 52459  53.2165 198.4560 0001464  59.6060 300.5076 15.08847025 25966,6917.859,95.437,540.737,538.711,0.0
52459.0,STARLINK-3856,PAYLOAD,2022-10-23 10:02:28,15.08846139,0.0001506,53.2169,195.4828,60.2543,299.8599,7.160100000000001e-05,8.52e-06,0.0,0 STARLINK-3856,1 52459U 22049J   22296.41838259  .00000852  00000-0  71601-4 0  9997,2 52459  53.2169 195.4828 0001506  60.2543 299.8599 15.08846139 26062,6917.861999999999,95.437,540.768,538.685,0.0
52459.0,STARLINK-3856,PAYLOAD,2022-10-23 17:59:23,15.088535,0.0001424,53.2162,193.9953,59.0756,301.0376,9.1965e-05,1.176e-05,0.0,0 STARLINK-3856,1 52459U 22049J   22296.74957354  .00001176  00000-0  91965-4 0  9996,2 52459  53.2162 193.9953 0001424  59.0756 301.0376 15.08853500 26113,6917.839,95.437,540.689,538.719,0.0
52459.0,STARLINK-3856,PAYLOAD,2022-10-24 03:31:41,15.08856396,0.0001493,53.2175,192.2134,66.1605,293.9543,0.00011989,1.621e-05,0.0,0 STARLINK-3856,1 52459U 22049J   22297.14700798  .00001621  00000-0  11989-3 0  9991,2 52459  53.2175 192.2134 0001493  66.1605 293.9543 15.08856396 26175,6917.83,95.437,540.7280000000002,538.6619999999998,0.0
52459.0,STARLINK-3856,PAYLOAD,2022-10-25 03:22:31,15.08821366,0.0001399,53.2168,187.7515,66.7856,293.3283,-0.00019527,-3.393e-05,0.0,0 STARLINK-3856,1 52459U 22049J   22298.14064191 -.00003393  00000-0 -19527-3 0  9998,2 52459  53.2168 187.7515 0001399  66.7856 293.3283 15.08821366 26486,6917.937,95.439,540.77,538.835,0.0
52459.0,STARLINK-3856,PAYLOAD,2022-10-26 01:37:55,15.08832835,0.0001565999999999,53.217,183.5883,66.0578,294.0578,-0.00013322,-2.407e-05,0.0,0 STARLINK-3856,1 52459U 22049J   22299.06800226 -.00002407  00000-0 -13322-3 0  9999,2 52459  53.2170 183.5883 0001566  66.0578 294.0578 15.08832835 26625,6917.901999999999,95.438,540.851,538.684,0.0
52459.0,STARLINK-3856,PAYLOAD,2022-10-26 09:34:50,15.08836566,0.000155,53.2171,182.1014,64.4411,295.6741,-0.00011007,-2.039e-05,0.0,0 STARLINK-3856,1 52459U 22049J   22299.39920103 -.00002039  00000-0 -11007-3 0  9991,2 52459  53.2171 182.1014 0001550  64.4411 295.6741 15.08836566 26510,6917.891,95.438,540.828,538.684,0.0
52459.0,STARLINK-3856,PAYLOAD,2022-10-26 19:07:10,15.08821046,0.0001618,53.217,180.317,66.1524,293.9638,0.0002029999999999,2.943e-05,0.0,0 STARLINK-3856,1 52459U 22049J   22299.79664583  .00002943  00000-0  20300-3 0  9990,2 52459  53.2170 180.3170 0001618  66.1524 293.9638 15.08821046 26570,6917.938,95.439,540.923,538.684,0.0
52459.0,STARLINK-3856,PAYLOAD,2022-10-27 09:25:38,15.08835631,0.0001725,53.2172,177.6413,66.3992,293.7182,0.00028407,4.235e-05,0.0,0 STARLINK-3856,1 52459U 22049J   22300.39280154  .00004235  00000-0  28407-3 0  9999,2 52459  53.2172 177.6413 0001725  66.3992 293.7182 15.08835631 26826,6917.894,95.438,540.952,538.565,0.0
52459.0,STARLINK-3856,PAYLOAD,2022-10-27 20:33:19,15.08851488,0.0001710999999999,53.2172,175.5595,66.6029,293.5143,0.00025596,3.789e-05,0.0,0 STARLINK-3856,1 52459U 22049J   22300.85647311  .00003789  00000-0  25596-3 0  9991,2 52459  53.2172 175.5595 0001711  66.6029 293.5143 15.08851488 26736,6917.845,95.437,540.894,538.5269999999998,0.0
52459.0,STARLINK-3856,PAYLOAD,2022-10-27 22:08:42,15.08854274,0.0001723,53.2172,175.2622,67.1966,292.9208,0.00028393,4.235e-05,0.0,0 STARLINK-3856,1 52459U 22049J   22300.92271105  .00004235  00000-0  28393-3 0  9998,2 52459  53.2172 175.2622 0001723  67.1966 292.9208 15.08854274 26903,6917.837,95.437,540.894,538.51,0.0
52459.0,STARLINK-3856,PAYLOAD,2022-10-28 18:48:42,15.08853387,0.0001738,53.2169,171.3965,68.5068,291.611,0.00015733,2.218e-05,0.0,0 STARLINK-3856,1 52459U 22049J   22301.78383018  .00002218  00000-0  15733-3 0  9993,2 52459  53.2169 171.3965 0001738  68.5068 291.6110 15.08853387 26878,6917.839,95.437,540.9069999999998,538.502,0.0
52459.0,STARLINK-3856,PAYLOAD,2022-10-28 21:59:29,15.08850475,0.0001575,53.2171,170.8019,63.7682,296.3472,0.0001341,1.847e-05,0.0,0 STARLINK-3856,1 52459U 22049J   22301.91631210  .00001847  00000-0  13410-3 0  9995,2 52459  53.2171 170.8019 0001575  63.7682 296.3472 15.08850475 27052,6917.848000000001,95.437,540.803,538.624,0.0
52459.0,STARLINK-3856,PAYLOAD,2022-10-28 23:34:52,15.08856071,0.000158,53.2171,170.5045,62.3131,297.8021,0.00013074,1.794e-05,0.0,0 STARLINK-3856,1 52459U 22049J   22301.98254877  .00001794  00000-0  13074-3 0  9999,2 52459  53.2171 170.5045 0001580  62.3131 297.8021 15.08856071 26905,6917.831,95.437,540.789,538.6030000000002,0.0
52459.0,STARLINK-3856,PAYLOAD,2022-10-29 20:14:52,15.08845955,0.0001634,53.2158,166.6387,62.5034,297.6125,-0.00011726,-2.154e-05,0.0,0 STARLINK-3856,1 52459U 22049J   22302.84366820 -.00002154  00000-0 -11726-3 0  9992,2 52459  53.2158 166.6387 0001634  62.5034 297.6125 15.08845955 27036,6917.861999999999,95.437,540.8580000000002,538.597,0.0
52459.0,STARLINK-3856,PAYLOAD,2022-10-29 21:50:16,15.08849087,0.0001594,53.2169,166.3399,73.2291,286.8876,-0.00011464,-2.113e-05,0.0,0 STARLINK-3856,1 52459U 22049J   22302.90991033 -.00002113  00000-0 -11464-3 0  9993,2 52459  53.2169 166.3399 0001594  73.2291 286.8876 15.08849087 27209,6917.853,95.437,540.82,538.615,0.0
52459.0,STARLINK-3856,PAYLOAD,2022-10-29 23:25:39,15.08848835,0.0001584,53.217,166.0427,71.8493,288.2672,-0.0001057,-1.97e-05,0.0,0 STARLINK-3856,1 52459U 22049J   22302.97614964 -.00001970  00000-0 -10570-3 0  9992,2 52459  53.2170 166.0427 0001584  71.8493 288.2672 15.08848835 27050,6917.853,95.437,540.814,538.623,0.0
52459.0,STARLINK-3856,PAYLOAD,2022-10-30 21:41:03,15.08840901,0.000155,53.2168,161.8802,61.00100000000001,299.1137,-5.3157e-05,-1.134e-05,0.0,0 STARLINK-3856,1 52459U 22049J   22303.90351133 -.00001134  00000-0 -53157-4 0  9993,2 52459  53.2168 161.8802 0001550  61.0010 299.1137 15.08840901 27194,6917.878000000002,95.437,540.815,538.67,0.0
52459.0,STARLINK-3856,PAYLOAD,2022-10-31 07:13:23,15.08824425,0.0001509,53.2178,160.0949,62.4418,297.6727,-0.00014973,-2.669e-05,0.0,0 STARLINK-3856,1 52459U 22049J   22304.30096604 -.00002669  00000-0 -14973-3 0  9993,2 52459  53.2178 160.0949 0001509  62.4418 297.6727 15.08824425 27257,6917.928000000001,95.439,540.837,538.749,0.0
52459.0,STARLINK-3856,PAYLOAD,2022-10-31 16:45:42,15.08819038,0.0001416,53.2167,158.3118,63.0449,297.0688,-4.0705e-05,-9.35e-06,0.0,0 STARLINK-3856,1 52459U 22049J   22304.69841028 -.00000935  00000-0 -40705-4 0  9990,2 52459  53.2167 158.3118 0001416  63.0449 297.0688 15.08819038 27312,6917.944,95.439,540.789,538.83,0.0
52459.0,STARLINK-3856,PAYLOAD,2022-11-01 00:42:38,15.08824875,0.0001558,53.2163,156.8254,62.0391,298.0758,1.4988e-05,-5e-07,0.0,0 STARLINK-3856,1 52459U 22049J   22305.02960914 -.00000050  00000-0  14988-4 0  9995,2 52459  53.2163 156.8254 0001558  62.0391 298.0758 15.08824875 27521,6917.927,95.439,540.869,538.714,0.0
